{
  "type": "FeatureCollection",
  "features": [
    {
      "type": "Feature",
      "properties": {
        "norad_id": 44334,
        "name": "EUTELSAT 7C",
        "group": "eutelsat",
        "lat": -0.01755021899291079,
        "lon": 45.000538140233104,
        "alt_km": 35800.896636475685,
        "timestamp": "2025-12-04T21:36:15.545949+00:00",
        "meta_object_name": "EUTELSAT 7C",
        "meta_object_id": "2019-034B",
        "meta_epoch": "2025-12-04T05:11:56.717952",
        "meta_mean_motion": 1.00269705,
        "meta_eccentricity": 0.00034396,
        "meta_inclination": 0.0758,
        "meta_ra_of_asc_node": 179.6886,
        "meta_arg_of_pericenter": 56.5984,
        "meta_mean_anomaly": 281.9777,
        "meta_ephemeris_type": 0,
        "meta_classification_type": "U",
        "meta_norad_cat_id": 44334,
        "meta_element_set_no": 999,
        "meta_rev_at_epoch": 488,
        "meta_bstar": 0,
        "meta_mean_motion_dot": 6.4e-07,
        "meta_mean_motion_ddot": 0,
        "tle_line1": "1 44334U 19034B   25338.21662868  .00000064  00000+0  00000+0 0  9993",
        "tle_line2": "2 44334   0.0758 179.6886 0003439  56.5984 281.9777  1.00269705  4882"
      },
      "geometry": {
        "type": "Point",
        "coordinates": [
          45.000538140233104,
          -0.01755021899291079
        ]
      }
    },
    {
      "type": "Feature",
      "properties": {
        "norad_id": 44624,
        "name": "EUTELSAT 5 WEST B",
        "group": "eutelsat",
        "lat": 0.08566912278906993,
        "lon": 33.04406279225046,
        "alt_km": 35798.00256214642,
        "timestamp": "2025-12-04T21:36:15.545961+00:00",
        "meta_object_name": "EUTELSAT 5 WEST B",
        "meta_object_id": "2019-067A",
        "meta_epoch": "2025-12-04T13:42:12.244320",
        "meta_mean_motion": 1.00270033,
        "meta_eccentricity": 0.00035672,
        "meta_inclination": 0.0692,
        "meta_ra_of_asc_node": 330.6082,
        "meta_arg_of_pericenter": 283.2398,
        "meta_mean_anomaly": 20.3528,
        "meta_ephemeris_type": 0,
        "meta_classification_type": "U",
        "meta_norad_cat_id": 44624,
        "meta_element_set_no": 999,
        "meta_rev_at_epoch": 2248,
        "meta_bstar": 0,
        "meta_mean_motion_dot": -2.8e-07,
        "meta_mean_motion_ddot": 0,
        "tle_line1": "1 44624U 19067A   25338.57097505 -.00000028  00000+0  00000+0 0  9991",
        "tle_line2": "2 44624   0.0692 330.6082 0003567 283.2398  20.3528  1.00270033 22489"
      },
      "geometry": {
        "type": "Point",
        "coordinates": [
          33.04406279225046,
          0.08566912278906993
        ]
      }
    },
    {
      "type": "Feature",
      "properties": {
        "norad_id": 45027,
        "name": "EUTELSAT KONNECT",
        "group": "eutelsat",
        "lat": -0.021557656814138758,
        "lon": 45.219482791093704,
        "alt_km": 35791.26629270929,
        "timestamp": "2025-12-04T21:36:15.545972+00:00",
        "meta_object_name": "EUTELSAT KONNECT",
        "meta_object_id": "2020-005B",
        "meta_epoch": "2025-12-04T08:37:30.490752",
        "meta_mean_motion": 1.00272344,
        "meta_eccentricity": 0.00016417,
        "meta_inclination": 0.0692,
        "meta_ra_of_asc_node": 100.602,
        "meta_arg_of_pericenter": 164.0721,
        "meta_mean_anomaly": 305.3307,
        "meta_ephemeris_type": 0,
        "meta_classification_type": "U",
        "meta_norad_cat_id": 45027,
        "meta_element_set_no": 999,
        "meta_rev_at_epoch": 2237,
        "meta_bstar": 0,
        "meta_mean_motion_dot": 6.5e-07,
        "meta_mean_motion_ddot": 0,
        "tle_line1": "1 45027U 20005B   25338.35938068  .00000065  00000+0  00000+0 0  9997",
        "tle_line2": "2 45027   0.0692 100.6020 0001641 164.0721 305.3307  1.00272344 22377"
      },
      "geometry": {
        "type": "Point",
        "coordinates": [
          45.219482791093704,
          -0.021557656814138758
        ]
      }
    },
    {
      "type": "Feature",
      "properties": {
        "norad_id": 49056,
        "name": "EUTELSAT QUANTUM",
        "group": "eutelsat",
        "lat": 0.03349247140066425,
        "lon": 85.7265209126946,
        "alt_km": 35802.08257877744,
        "timestamp": "2025-12-04T21:36:15.545984+00:00",
        "meta_object_name": "EUTELSAT QUANTUM",
        "meta_object_id": "2021-069B",
        "meta_epoch": "2025-12-04T10:31:34.563072",
        "meta_mean_motion": 1.00272183,
        "meta_eccentricity": 0.00038182,
        "meta_inclination": 0.0199,
        "meta_ra_of_asc_node": 25.9627,
        "meta_arg_of_pericenter": 241.0505,
        "meta_mean_anomaly": 12.1053,
        "meta_ephemeris_type": 0,
        "meta_classification_type": "U",
        "meta_norad_cat_id": 49056,
        "meta_element_set_no": 999,
        "meta_rev_at_epoch": 1597,
        "meta_bstar": 0,
        "meta_mean_motion_dot": 1.41e-06,
        "meta_mean_motion_ddot": 0,
        "tle_line1": "1 49056U 21069B   25338.43859448  .00000141  00000+0  00000+0 0  9992",
        "tle_line2": "2 49056   0.0199  25.9627 0003818 241.0505  12.1053  1.00272183 15971"
      },
      "geometry": {
        "type": "Point",
        "coordinates": [
          85.7265209126946,
          0.03349247140066425
        ]
      }
    },
    {
      "type": "Feature",
      "properties": {
        "norad_id": 53765,
        "name": "EUTELSAT KONNECT VHTS",
        "group": "eutelsat",
        "lat": -0.01711350487625953,
        "lon": 40.71076538291501,
        "alt_km": 35798.24938629196,
        "timestamp": "2025-12-04T21:36:15.545996+00:00",
        "meta_object_name": "EUTELSAT KONNECT VHTS",
        "meta_object_id": "2022-110A",
        "meta_epoch": "2025-12-04T13:44:12.051744",
        "meta_mean_motion": 1.00269123,
        "meta_eccentricity": 0.00027627,
        "meta_inclination": 0.0604,
        "meta_ra_of_asc_node": 108.2919,
        "meta_arg_of_pericenter": 124.354,
        "meta_mean_anomaly": 49.743,
        "meta_ephemeris_type": 0,
        "meta_classification_type": "U",
        "meta_norad_cat_id": 53765,
        "meta_element_set_no": 999,
        "meta_rev_at_epoch": 487,
        "meta_bstar": 0,
        "meta_mean_motion_dot": 3.1e-07,
        "meta_mean_motion_ddot": 0,
        "tle_line1": "1 53765U 22110A   25338.57236171  .00000031  00000+0  00000+0 0  9997",
        "tle_line2": "2 53765   0.0604 108.2919 0002762 124.3540  49.7430  1.00269123  4874"
      },
      "geometry": {
        "type": "Point",
        "coordinates": [
          40.71076538291501,
          -0.01711350487625953
        ]
      }
    },
    {
      "type": "Feature",
      "properties": {
        "norad_id": 54048,
        "name": "EUTELSAT HOTBIRD 13F",
        "group": "eutelsat",
        "lat": 0.06816278409910448,
        "lon": 51.030326461243476,
        "alt_km": 35781.49583127222,
        "timestamp": "2025-12-04T21:36:15.546009+00:00",
        "meta_object_name": "EUTELSAT HOTBIRD 13F",
        "meta_object_id": "2022-134A",
        "meta_epoch": "2025-12-04T13:47:19.252896",
        "meta_mean_motion": 1.00270673,
        "meta_eccentricity": 0.00021447,
        "meta_inclination": 0.0509,
        "meta_ra_of_asc_node": 291.8865,
        "meta_arg_of_pericenter": 61.6816,
        "meta_mean_anomaly": 299.907,
        "meta_ephemeris_type": 0,
        "meta_classification_type": "U",
        "meta_norad_cat_id": 54048,
        "meta_element_set_no": 999,
        "meta_rev_at_epoch": 1142,
        "meta_bstar": 0,
        "meta_mean_motion_dot": 1.02e-06,
        "meta_mean_motion_ddot": 0,
        "tle_line1": "1 54048U 22134A   25338.57452839  .00000102  00000+0  00000+0 0  9998",
        "tle_line2": "2 54048   0.0509 291.8865 0002144  61.6816 299.9070  1.00270673 11425"
      },
      "geometry": {
        "type": "Point",
        "coordinates": [
          51.030326461243476,
          0.06816278409910448
        ]
      }
    },
    {
      "type": "Feature",
      "properties": {
        "norad_id": 54225,
        "name": "EUTELSAT HOTBIRD 13G",
        "group": "eutelsat",
        "lat": 0.02807477887776464,
        "lon": 50.99329714534464,
        "alt_km": 35792.57692164109,
        "timestamp": "2025-12-04T21:36:15.546021+00:00",
        "meta_object_name": "EUTELSAT HOTBIRD 13G",
        "meta_object_id": "2022-146A",
        "meta_epoch": "2025-12-04T01:48:08.883648",
        "meta_mean_motion": 1.00271083,
        "meta_eccentricity": 0.0002144,
        "meta_inclination": 0.0481,
        "meta_ra_of_asc_node": 238.3515,
        "meta_arg_of_pericenter": 307.4733,
        "meta_mean_anomaly": 287.3658,
        "meta_ephemeris_type": 0,
        "meta_classification_type": "U",
        "meta_norad_cat_id": 54225,
        "meta_element_set_no": 999,
        "meta_rev_at_epoch": 551,
        "meta_bstar": 0,
        "meta_mean_motion_dot": 1.04e-06,
        "meta_mean_motion_ddot": 0,
        "tle_line1": "1 54225U 22146A   25338.07510282  .00000104  00000+0  00000+0 0  9992",
        "tle_line2": "2 54225   0.0481 238.3515 0002144 307.4733 287.3658  1.00271083  5510"
      },
      "geometry": {
        "type": "Point",
        "coordinates": [
          50.99329714534464,
          0.02807477887776464
        ]
      }
    }
  ]
}